start=new Date('2022-04-18T00:00:00.000Z').valueOf();
sats=[{"MEAN_MOTION_DDOT":"0.0000000000000","ECCENTRICITY":"0.00019950","OBJECT_ID":"2020-019AG","PERIAPSIS":"545.859","MEAN_ANOMALY":"309.9372","MEAN_ELEMENT_THEORY":"SGP4","INCLINATION":"53.0547","GP_ID":"201494142","FILE":"3405839","DECAY_DATE":null,"ELEMENT_SET_NO":"999","RCS_SIZE":"LARGE","OBJECT_NAME":"STARLINK-1284","CLASSIFICATION_TYPE":"U","SITE":"AFETR","EPOCH":"2022-04-17T20:56:07.624608","TLE_LINE1":"1 45390U 20019AG  22107.87231047 -.00000830  00000-0 -36796-4 0  9995","OBJECT_TYPE":"PAYLOAD","RA_OF_ASC_NODE":"49.4071","ARG_OF_PERICENTER":"50.1793","EPHEMERIS_TYPE":"0","REV_AT_EPOCH":"11570","SEMIMAJOR_AXIS":"6925.376","TIME_SYSTEM":"UTC","LAUNCH_DATE":"2020-03-18","NORAD_CAT_ID":"45390","APOAPSIS":"548.622","BSTAR":"-0.00003679600000","MEAN_MOTION":"15.06391192","CENTER_NAME":"EARTH","TLE_LINE2":"2 45390  53.0547  49.4071 0001995  50.1793 309.9372 15.06391192115705","MEAN_MOTION_DOT":"-0.00000830","REF_FRAME":"TEME","PERIOD":"95.593","COUNTRY_CODE":"US"},{"MEAN_MOTION_DOT":"0.00000760","REF_FRAME":"TEME","PERIOD":"95.592","COUNTRY_CODE":"US","CENTER_NAME":"EARTH","TLE_LINE2":"2 45391  53.0561  50.8321 0001311  82.0169 278.0969 15.06398231115382","BSTAR":"0.00006994100000","MEAN_MOTION":"15.06398231","REV_AT_EPOCH":"11538","SEMIMAJOR_AXIS":"6925.354","TIME_SYSTEM":"UTC","LAUNCH_DATE":"2020-03-18","NORAD_CAT_ID":"45391","APOAPSIS":"548.127","EPOCH":"2022-04-17T13:19:38.197344","TLE_LINE1":"1 45391U 20019AH  22107.55530321  .00000760  00000-0  69941-4 0  9996","RA_OF_ASC_NODE":"50.8321","ARG_OF_PERICENTER":"82.0169","OBJECT_TYPE":"PAYLOAD","EPHEMERIS_TYPE":"0","RCS_SIZE":"LARGE","OBJECT_NAME":"STARLINK-1289","CLASSIFICATION_TYPE":"U","SITE":"AFETR","INCLINATION":"53.0561","MEAN_ELEMENT_THEORY":"SGP4","DECAY_DATE":null,"FILE":"3405596","GP_ID":"201463680","ELEMENT_SET_NO":"999","ECCENTRICITY":"0.00013110","MEAN_MOTION_DDOT":"0.0000000000000","OBJECT_ID":"2020-019AH","PERIAPSIS":"546.311","MEAN_ANOMALY":"278.0969"},{"SITE":"AFETR","CLASSIFICATION_TYPE":"U","OBJECT_NAME":"STARLINK-1290","RCS_SIZE":"LARGE","EPHEMERIS_TYPE":"0","RA_OF_ASC_NODE":"43.1800","ARG_OF_PERICENTER":"107.0729","OBJECT_TYPE":"PAYLOAD","EPOCH":"2022-04-17T12:32:05.512128","TLE_LINE1":"1 45392U 20019AJ  22107.52228602  .00017859  00000-0  10619-2 0  9993","MEAN_ANOMALY":"253.0419","PERIAPSIS":"531.120","OBJECT_ID":"2020-019AJ","ECCENTRICITY":"0.00014350","MEAN_MOTION_DDOT":"0.0000000000000","ELEMENT_SET_NO":"999","FILE":"3405596","DECAY_DATE":null,"GP_ID":"201462914","INCLINATION":"52.9961","MEAN_ELEMENT_THEORY":"SGP4","TLE_LINE2":"2 45392  52.9961  43.1800 0001435 107.0729 253.0419 15.11341073115447","CENTER_NAME":"EARTH","COUNTRY_CODE":"US","PERIOD":"95.280","REF_FRAME":"TEME","MEAN_MOTION_DOT":"0.00017859","APOAPSIS":"533.103","NORAD_CAT_ID":"45392","TIME_SYSTEM":"UTC","LAUNCH_DATE":"2020-03-18","REV_AT_EPOCH":"11544","SEMIMAJOR_AXIS":"6910.246","MEAN_MOTION":"15.11341073","BSTAR":"0.00106190000000"},{"EPHEMERIS_TYPE":"0","ARG_OF_PERICENTER":"77.5918","RA_OF_ASC_NODE":"49.5009","OBJECT_TYPE":"PAYLOAD","TLE_LINE1":"1 45393U 20019AK  22107.85018059  .00001156  00000-0  96501-4 0  9992","EPOCH":"2022-04-17T20:24:15.602976","SITE":"AFETR","CLASSIFICATION_TYPE":"U","OBJECT_NAME":"STARLINK-1291","RCS_SIZE":"LARGE","ELEMENT_SET_NO":"999","FILE":"3405839","DECAY_DATE":null,"GP_ID":"201493894","INCLINATION":"53.0557","MEAN_ELEMENT_THEORY":"SGP4","MEAN_ANOMALY":"282.5233","PERIAPSIS":"546.227","OBJECT_ID":"2020-019AK","ECCENTRICITY":"0.00014480","MEAN_MOTION_DDOT":"0.0000000000000","COUNTRY_CODE":"US","PERIOD":"95.592","REF_FRAME":"TEME","MEAN_MOTION_DOT":"0.00001156","TLE_LINE2":"2 45393  53.0557  49.5009 0001448  77.5918 282.5233 15.06394658115461","CENTER_NAME":"EARTH","MEAN_MOTION":"15.06394658","BSTAR":"0.00009650100000","NORAD_CAT_ID":"45393","APOAPSIS":"548.233","TIME_SYSTEM":"UTC","LAUNCH_DATE":"2020-03-18","SEMIMAJOR_AXIS":"6925.365","REV_AT_EPOCH":"11546"},{"COUNTRY_CODE":"US","PERIOD":"95.593","REF_FRAME":"TEME","MEAN_MOTION_DOT":"-0.00000118","TLE_LINE2":"2 45394  53.0562  50.8652 0001455  73.5771 286.5378 15.06393255115396","CENTER_NAME":"EARTH","MEAN_MOTION":"15.06393255","BSTAR":"0.00001096500000","APOAPSIS":"548.242","NORAD_CAT_ID":"45394","TIME_SYSTEM":"UTC","LAUNCH_DATE":"2020-03-18","REV_AT_EPOCH":"11539","SEMIMAJOR_AXIS":"6925.369","EPHEMERIS_TYPE":"0","RA_OF_ASC_NODE":"50.8652","ARG_OF_PERICENTER":"73.5771","OBJECT_TYPE":"PAYLOAD","EPOCH":"2022-04-17T13:09:01.767168","TLE_LINE1":"1 45394U 20019AL  22107.54793712 -.00000118  00000-0  10965-4 0  9993","SITE":"AFETR","CLASSIFICATION_TYPE":"U","OBJECT_NAME":"STARLINK-1292","RCS_SIZE":"LARGE","ELEMENT_SET_NO":"999","DECAY_DATE":null,"FILE":"3405596","GP_ID":"201463432","INCLINATION":"53.0562","MEAN_ELEMENT_THEORY":"SGP4","MEAN_ANOMALY":"286.5378","PERIAPSIS":"546.227","OBJECT_ID":"2020-019AL","ECCENTRICITY":"0.00014550","MEAN_MOTION_DDOT":"0.0000000000000"},{"OBJECT_NAME":"STARLINK-1297","RCS_SIZE":"LARGE","SITE":"AFETR","CLASSIFICATION_TYPE":"U","EPOCH":"2022-04-17T20:13:39.823392","TLE_LINE1":"1 45395U 20019AM  22107.84282203  .00003258  00000-0  23760-3 0  9998","EPHEMERIS_TYPE":"0","RA_OF_ASC_NODE":"49.5481","ARG_OF_PERICENTER":"74.8127","OBJECT_TYPE":"PAYLOAD","OBJECT_ID":"2020-019AM","ECCENTRICITY":"0.00015720","MEAN_MOTION_DDOT":"0.0000000000000","MEAN_ANOMALY":"285.3036","PERIAPSIS":"546.174","DECAY_DATE":null,"FILE":"3405839","GP_ID":"201492893","INCLINATION":"53.0556","MEAN_ELEMENT_THEORY":"SGP4","ELEMENT_SET_NO":"999","CENTER_NAME":"EARTH","TLE_LINE2":"2 45395  53.0556  49.5481 0001572  74.8127 285.3036 15.06384012114886","REF_FRAME":"TEME","MEAN_MOTION_DOT":"0.00003258","COUNTRY_CODE":"US","PERIOD":"95.593","SEMIMAJOR_AXIS":"6925.398","REV_AT_EPOCH":"11488","NORAD_CAT_ID":"45395","APOAPSIS":"548.351","LAUNCH_DATE":"2020-03-18","TIME_SYSTEM":"UTC","BSTAR":"0.00023760000000","MEAN_MOTION":"15.06384012"},{"EPHEMERIS_TYPE":"0","OBJECT_TYPE":"PAYLOAD","ARG_OF_PERICENTER":"73.7568","RA_OF_ASC_NODE":"49.3147","EPOCH":"2022-04-17T21:22:40.164960","TLE_LINE1":"1 45396U 20019AN  22107.89074265 -.00001844  00000-0 -10494-3 0  9992","SITE":"AFETR","CLASSIFICATION_TYPE":"U","OBJECT_NAME":"STARLINK-1303","RCS_SIZE":"LARGE","ELEMENT_SET_NO":"999","GP_ID":"201493143","FILE":"3405839","DECAY_DATE":null,"MEAN_ELEMENT_THEORY":"SGP4","INCLINATION":"53.0556","MEAN_ANOMALY":"286.3579","PERIAPSIS":"546.255","OBJECT_ID":"2020-019AN","MEAN_MOTION_DDOT":"0.0000000000000","ECCENTRICITY":"0.00014300","COUNTRY_CODE":"US","PERIOD":"95.593","REF_FRAME":"TEME","MEAN_MOTION_DOT":"-0.00001844","TLE_LINE2":"2 45396  53.0556  49.3147 0001430  73.7568 286.3579 15.06389528115425","CENTER_NAME":"EARTH","MEAN_MOTION":"15.06389528","BSTAR":"-0.00010494000000","NORAD_CAT_ID":"45396","APOAPSIS":"548.236","TIME_SYSTEM":"UTC","LAUNCH_DATE":"2020-03-18","SEMIMAJOR_AXIS":"6925.381","REV_AT_EPOCH":"11542"},{"NORAD_CAT_ID":"45397","APOAPSIS":"548.288","TIME_SYSTEM":"UTC","LAUNCH_DATE":"2020-03-18","SEMIMAJOR_AXIS":"6925.378","REV_AT_EPOCH":"11552","MEAN_MOTION":"15.06390276","BSTAR":"0.00161890000000","TLE_LINE2":"2 45397  53.0543  49.5595 0001508  95.5409 264.5752 15.06390276115527","CENTER_NAME":"EARTH","COUNTRY_CODE":"US","PERIOD":"95.593","REF_FRAME":"TEME","MEAN_MOTION_DOT":"0.00023908","MEAN_ANOMALY":"264.5752","PERIAPSIS":"546.199","OBJECT_ID":"2020-019AP","ECCENTRICITY":"0.00015080","MEAN_MOTION_DDOT":"0.0000000000000","ELEMENT_SET_NO":"999","FILE":"3405839","DECAY_DATE":null,"GP_ID":"201493403","INCLINATION":"53.0543","MEAN_ELEMENT_THEORY":"SGP4","SITE":"AFETR","CLASSIFICATION_TYPE":"U","OBJECT_NAME":"STARLINK-1307","RCS_SIZE":"LARGE","EPHEMERIS_TYPE":"0","RA_OF_ASC_NODE":"49.5595","ARG_OF_PERICENTER":"95.5409","OBJECT_TYPE":"PAYLOAD","EPOCH":"2022-04-17T20:03:03.295584","TLE_LINE1":"1 45397U 20019AP  22107.83545481  .00023908  00000-0  16189-2 0  9999"},{"RA_OF_ASC_NODE":"49.5884","ARG_OF_PERICENTER":"87.2267","OBJECT_TYPE":"PAYLOAD","EPHEMERIS_TYPE":"0","TLE_LINE1":"1 45398U 20019AQ  22107.82807579  .00000110  00000-0  26299-4 0  9993","EPOCH":"2022-04-17T19:52:25.748256","CLASSIFICATION_TYPE":"U","SITE":"AFETR","RCS_SIZE":"LARGE","OBJECT_NAME":"STARLINK-1312","ELEMENT_SET_NO":"999","INCLINATION":"53.0554","MEAN_ELEMENT_THEORY":"SGP4","FILE":"3405839","DECAY_DATE":null,"GP_ID":"201494143","PERIAPSIS":"546.237","MEAN_ANOMALY":"272.8886","ECCENTRICITY":"0.00014320","MEAN_MOTION_DDOT":"0.0000000000000","OBJECT_ID":"2020-019AQ","PERIOD":"95.592","COUNTRY_CODE":"US","MEAN_MOTION_DOT":"0.00000110","REF_FRAME":"TEME","TLE_LINE2":"2 45398  53.0554  49.5884 0001432  87.2267 272.8886 15.06394983115458","CENTER_NAME":"EARTH","MEAN_MOTION":"15.06394983","BSTAR":"0.00002629900000","TIME_SYSTEM":"UTC","LAUNCH_DATE":"2020-03-18","APOAPSIS":"548.221","NORAD_CAT_ID":"45398","REV_AT_EPOCH":"11545","SEMIMAJOR_AXIS":"6925.364"},{"RCS_SIZE":"LARGE","OBJECT_NAME":"STARLINK-1255","CLASSIFICATION_TYPE":"U","SITE":"AFETR","EPOCH":"2022-04-17T20:52:08.379552","TLE_LINE1":"1 45399U 20019AR  22107.86954143 -.00000494  00000-0 -14287-4 0  9999","RA_OF_ASC_NODE":"39.4073","ARG_OF_PERICENTER":"53.0458","OBJECT_TYPE":"PAYLOAD","EPHEMERIS_TYPE":"0","ECCENTRICITY":"0.00017210","MEAN_MOTION_DDOT":"0.0000000000000","OBJECT_ID":"2020-019AR","PERIAPSIS":"546.045","MEAN_ANOMALY":"307.0689","INCLINATION":"53.0557","MEAN_ELEMENT_THEORY":"SGP4","FILE":"3405839","DECAY_DATE":null,"GP_ID":"201492402","ELEMENT_SET_NO":"999","CENTER_NAME":"EARTH","TLE_LINE2":"2 45399  53.0557  39.4073 0001721  53.0458 307.0689 15.06392327115658","MEAN_MOTION_DOT":"-0.00000494","REF_FRAME":"TEME","PERIOD":"95.593","COUNTRY_CODE":"US","REV_AT_EPOCH":"11565","SEMIMAJOR_AXIS":"6925.372","LAUNCH_DATE":"2020-03-18","TIME_SYSTEM":"UTC","APOAPSIS":"548.429","NORAD_CAT_ID":"45399","BSTAR":"-0.00001428700000","MEAN_MOTION":"15.06392327"}];
